*******************************************************************************
Ephemeris / WWW_USER Mon Mar 24 09:26:29 2025 Pasadena, USA      / Horizons    
*******************************************************************************
Target body name: ASASSN (C/2017 O1)              {source: JPL#21}
Center body name: Earth (399)                     {source: DE441}
Center-site name: Mauna Kea
*******************************************************************************
Start time      : A.D. 2018-Dec-22 03:58:00.0000 UT      
Stop  time      : A.D. 2018-Dec-22 16:42:00.0000 UT      
Step-size       : 1 minutes
*******************************************************************************
Target pole/equ : undefined
Target radii    : undefined                                                    
Center geodetic : 204.5278, 19.8260847, 4.21024   {E-lon(deg),Lat(deg),Alt(km)}
Center cylindric: 204.5278, 6006.35451, 2151.0229 {E-lon(deg),Dxy(km),Dz(km)}
Center pole/equ : ITRF93                          {East-longitude positive}
Center radii    : 6378.137, 6378.137, 6356.752 km {Equator_a, b, pole_c}       
Target primary  : Sun
Vis. interferer : MOON (R_eq= 1737.400) km        {source: DE441}
Rel. light bend : Sun                             {source: DE441}
Rel. lght bnd GM: 1.3271E+11 km^3/s^2                                          
Small-body perts: Yes                             {source: SB441-N16}
Atmos refraction: NO (AIRLESS)
RA format       : HMS
Time format     : CAL 
Calendar mode   : Mixed Julian/Gregorian
RTS-only print  : NO       
EOP file        : eop.250321.p250617                                           
EOP coverage    : DATA-BASED 1962-JAN-20 TO 2025-MAR-21. PREDICTS-> 2025-JUN-16
Units conversion: 1 au= 149597870.700 km, c= 299792.458 km/s, 1 day= 86400.0 s 
Table cut-offs 1: Elevation (-90.0deg=NO ),Airmass (>38.000=NO), Daylight (YES)
Table cut-offs 2: Solar elongation (  0.0,180.0=NO ),Local Hour Angle( 0.0=NO )
Table cut-offs 3: RA/DEC angular rate (     0.0=NO )                           
*******************************************************************************
Initial IAU76/J2000 heliocentric ecliptic osculating elements (au, days, deg.):
  EPOCH=  2458039.5 ! 2017-Oct-13.0000000 (TDB)    RMSW= n.a.                  
   EC= .9964254882304144   QR= 1.498687032290766   TP= 2458041.2851755521      
   OM= 25.80948799039273   W= 20.90785287564418    IN= 39.84841297991522       
  Equivalent ICRF heliocentric cartesian coordinates (au, au/d):
   X= 1.103880574170232E+00  Y= 7.544591652134763E-01  Z= 6.774428678789283E-01
  VX=-1.240653547490291E-02 VY= 4.322571932715848E-03 VZ= 1.488380440184248E-02
Comet physical (GM= km^3/s^2; RAD= km):                                        
   GM= n.a.                RAD= n.a.                                           
   M1=  12.4     M2=  n.a.     k1=  8.75   k2= n.a.     PHCOF= n.a.            
*******************************************************************************
 Date__(UT)__HR:MN     R.A._________(ICRF)_________DEC
******************************************************
$$SOE
 2018-Dec-22 14:23  m  12 50 57.477076 +23 47 44.63289
 2018-Dec-22 14:24  m  12 50 57.486359 +23 47 44.70991
 2018-Dec-22 14:25  m  12 50 57.495640 +23 47 44.78692
 2018-Dec-22 14:26  m  12 50 57.504920 +23 47 44.86393
 2018-Dec-22 14:27  m  12 50 57.514197 +23 47 44.94093
 2018-Dec-22 14:28  m  12 50 57.523473 +23 47 45.01793
 2018-Dec-22 14:29  m  12 50 57.532746 +23 47 45.09492
 2018-Dec-22 14:30  m  12 50 57.542018 +23 47 45.17190
 2018-Dec-22 14:31  m  12 50 57.551289 +23 47 45.24888
 2018-Dec-22 14:32  m  12 50 57.560557 +23 47 45.32584
 2018-Dec-22 14:33  m  12 50 57.569824 +23 47 45.40280
 2018-Dec-22 14:34  m  12 50 57.579088 +23 47 45.47976
 2018-Dec-22 14:35  m  12 50 57.588351 +23 47 45.55671
 2018-Dec-22 14:36  m  12 50 57.597613 +23 47 45.63365
 2018-Dec-22 14:37  m  12 50 57.606872 +23 47 45.71058
 2018-Dec-22 14:38  m  12 50 57.616130 +23 47 45.78751
 2018-Dec-22 14:39  m  12 50 57.625386 +23 47 45.86442
 2018-Dec-22 14:40  m  12 50 57.634640 +23 47 45.94134
 2018-Dec-22 14:41  m  12 50 57.643892 +23 47 46.01824
 2018-Dec-22 14:42  m  12 50 57.653143 +23 47 46.09514
 2018-Dec-22 14:43  m  12 50 57.662392 +23 47 46.17203
 2018-Dec-22 14:44  m  12 50 57.671640 +23 47 46.24891
 2018-Dec-22 14:45  m  12 50 57.680885 +23 47 46.32579
 2018-Dec-22 14:46  m  12 50 57.690129 +23 47 46.40266
 2018-Dec-22 14:47  m  12 50 57.699371 +23 47 46.47952
 2018-Dec-22 14:48  m  12 50 57.708612 +23 47 46.55637
 2018-Dec-22 14:49  m  12 50 57.717851 +23 47 46.63322
 2018-Dec-22 14:50  m  12 50 57.727088 +23 47 46.71005
 2018-Dec-22 14:51  m  12 50 57.736324 +23 47 46.78689
 2018-Dec-22 14:52  m  12 50 57.745558 +23 47 46.86371
 2018-Dec-22 14:53  m  12 50 57.754790 +23 47 46.94052
 2018-Dec-22 14:54  m  12 50 57.764021 +23 47 47.01733
 2018-Dec-22 14:55  m  12 50 57.773250 +23 47 47.09413
 2018-Dec-22 14:56  m  12 50 57.782478 +23 47 47.17093
 2018-Dec-22 14:57  m  12 50 57.791703 +23 47 47.24771
 2018-Dec-22 14:58  m  12 50 57.800928 +23 47 47.32449
 2018-Dec-22 14:59  m  12 50 57.810150 +23 47 47.40126
 2018-Dec-22 15:00  m  12 50 57.819372 +23 47 47.47802
 2018-Dec-22 15:01  m  12 50 57.828591 +23 47 47.55478
 2018-Dec-22 15:02  m  12 50 57.837809 +23 47 47.63152
 2018-Dec-22 15:03  m  12 50 57.847026 +23 47 47.70826
 2018-Dec-22 15:04  m  12 50 57.856240 +23 47 47.78499
 2018-Dec-22 15:05  m  12 50 57.865454 +23 47 47.86171
 2018-Dec-22 15:06  m  12 50 57.874666 +23 47 47.93843
 2018-Dec-22 15:07  m  12 50 57.883876 +23 47 48.01514
 2018-Dec-22 15:08  m  12 50 57.893085 +23 47 48.09183
 2018-Dec-22 15:09  m  12 50 57.902292 +23 47 48.16853
 2018-Dec-22 15:10  m  12 50 57.911498 +23 47 48.24521
 2018-Dec-22 15:11  m  12 50 57.920702 +23 47 48.32188
 2018-Dec-22 15:12  m  12 50 57.929905 +23 47 48.39855
 2018-Dec-22 15:13  m  12 50 57.939106 +23 47 48.47521
 2018-Dec-22 15:14  m  12 50 57.948306 +23 47 48.55186
 2018-Dec-22 15:15  m  12 50 57.957505 +23 47 48.62850
 2018-Dec-22 15:16  m  12 50 57.966702 +23 47 48.70513
 2018-Dec-22 15:17  m  12 50 57.975897 +23 47 48.78176
 2018-Dec-22 15:18  m  12 50 57.985092 +23 47 48.85838
 2018-Dec-22 15:19  m  12 50 57.994284 +23 47 48.93499
 2018-Dec-22 15:20  m  12 50 58.003476 +23 47 49.01159
 2018-Dec-22 15:21  m  12 50 58.012666 +23 47 49.08818
 2018-Dec-22 15:22  m  12 50 58.021854 +23 47 49.16476
 2018-Dec-22 15:23  m  12 50 58.031041 +23 47 49.24134
 2018-Dec-22 15:24  m  12 50 58.040227 +23 47 49.31790
 2018-Dec-22 15:25  m  12 50 58.049412 +23 47 49.39446
 2018-Dec-22 15:26  m  12 50 58.058595 +23 47 49.47101
 2018-Dec-22 15:27  m  12 50 58.067776 +23 47 49.54756
 2018-Dec-22 15:28  m  12 50 58.076957 +23 47 49.62409
 2018-Dec-22 15:29  m  12 50 58.086136 +23 47 49.70061
 2018-Dec-22 15:30  m  12 50 58.095314 +23 47 49.77713
 2018-Dec-22 15:31  m  12 50 58.104490 +23 47 49.85364
 2018-Dec-22 15:32  m  12 50 58.113665 +23 47 49.93014
 2018-Dec-22 15:33  m  12 50 58.122839 +23 47 50.00663
 2018-Dec-22 15:34 Am  12 50 58.132011 +23 47 50.08311
 2018-Dec-22 15:35 Am  12 50 58.141183 +23 47 50.15958
 2018-Dec-22 15:36 Am  12 50 58.150353 +23 47 50.23604
 2018-Dec-22 15:37 Am  12 50 58.159522 +23 47 50.31250
 2018-Dec-22 15:38 Am  12 50 58.168689 +23 47 50.38895
 2018-Dec-22 15:39 Am  12 50 58.177855 +23 47 50.46538
 2018-Dec-22 15:40 Am  12 50 58.187020 +23 47 50.54181
 2018-Dec-22 15:41 Am  12 50 58.196184 +23 47 50.61823
 2018-Dec-22 15:42 Am  12 50 58.205347 +23 47 50.69464
 2018-Dec-22 15:43 Am  12 50 58.214508 +23 47 50.77105
 2018-Dec-22 15:44 Am  12 50 58.223668 +23 47 50.84744
 2018-Dec-22 15:45 Am  12 50 58.232828 +23 47 50.92383
 2018-Dec-22 15:46 Am  12 50 58.241985 +23 47 51.00020
 2018-Dec-22 15:47 Am  12 50 58.251142 +23 47 51.07657
 2018-Dec-22 15:48 Am  12 50 58.260298 +23 47 51.15293
 2018-Dec-22 15:49 Am  12 50 58.269452 +23 47 51.22928
 2018-Dec-22 15:50 Am  12 50 58.278605 +23 47 51.30562
 2018-Dec-22 15:51 Am  12 50 58.287757 +23 47 51.38195
 2018-Dec-22 15:52 Am  12 50 58.296908 +23 47 51.45827
 2018-Dec-22 15:53 Am  12 50 58.306058 +23 47 51.53458
 2018-Dec-22 15:54 Am  12 50 58.315207 +23 47 51.61089
 2018-Dec-22 15:55 Am  12 50 58.324355 +23 47 51.68718
 2018-Dec-22 15:56 Am  12 50 58.333501 +23 47 51.76347
 2018-Dec-22 15:57 Am  12 50 58.342647 +23 47 51.83974
 2018-Dec-22 15:58 Am  12 50 58.351792 +23 47 51.91601
 2018-Dec-22 15:59 Am  12 50 58.360935 +23 47 51.99227
 2018-Dec-22 16:00 Am  12 50 58.370077 +23 47 52.06852
 2018-Dec-22 16:01 Am  12 50 58.379219 +23 47 52.14476
 2018-Dec-22 16:02 Nm  12 50 58.388359 +23 47 52.22099
 2018-Dec-22 16:03 Nm  12 50 58.397498 +23 47 52.29721
 2018-Dec-22 16:04 Nm  12 50 58.406637 +23 47 52.37342
 2018-Dec-22 16:05 Nm  12 50 58.415774 +23 47 52.44963
 2018-Dec-22 16:06 Nm  12 50 58.424910 +23 47 52.52582
 2018-Dec-22 16:07 Nm  12 50 58.434046 +23 47 52.60201
 2018-Dec-22 16:08 Nm  12 50 58.443180 +23 47 52.67818
 2018-Dec-22 16:09 Nm  12 50 58.452313 +23 47 52.75435
 2018-Dec-22 16:10 Nm  12 50 58.461446 +23 47 52.83050
 2018-Dec-22 16:11 Nm  12 50 58.470577 +23 47 52.90665
 2018-Dec-22 16:12 Nm  12 50 58.479708 +23 47 52.98279
 2018-Dec-22 16:13 Nm  12 50 58.488838 +23 47 53.05892
 2018-Dec-22 16:14 Nm  12 50 58.497967 +23 47 53.13504
 2018-Dec-22 16:15 Nm  12 50 58.507094 +23 47 53.21115
 2018-Dec-22 16:16 Nm  12 50 58.516221 +23 47 53.28725
 2018-Dec-22 16:17 Nm  12 50 58.525347 +23 47 53.36334
 2018-Dec-22 16:18 Nm  12 50 58.534473 +23 47 53.43942
 2018-Dec-22 16:19 Nm  12 50 58.543597 +23 47 53.51549
 2018-Dec-22 16:20 Nm  12 50 58.552721 +23 47 53.59156
 2018-Dec-22 16:21 Nm  12 50 58.561843 +23 47 53.66761
 2018-Dec-22 16:22 Nm  12 50 58.570965 +23 47 53.74365
 2018-Dec-22 16:23 Nm  12 50 58.580086 +23 47 53.81969
 2018-Dec-22 16:24 Nm  12 50 58.589206 +23 47 53.89571
 2018-Dec-22 16:25 Nm  12 50 58.598326 +23 47 53.97173
 2018-Dec-22 16:26 Nm  12 50 58.607444 +23 47 54.04773
 2018-Dec-22 16:27 Nm  12 50 58.616562 +23 47 54.12373
